#dV2023  2  1 22  0  0.00000000    1682       CTS   FIT  GFZ
## 2247 338400.00000000    30.00000000 59976 0.9166666666667
+    1   L64  0  0  0  0  0  0  0  0  0  0  0  0  0  0  0  0
+          0  0  0  0  0  0  0  0  0  0  0  0  0  0  0  0  0
+          0  0  0  0  0  0  0  0  0  0  0  0  0  0  0  0  0
+          0  0  0  0  0  0  0  0  0  0  0  0  0  0  0  0  0
+          0  0  0  0  0  0  0  0  0  0  0  0  0  0  0  0  0
++         0  0  0  0  0  0  0  0  0  0  0  0  0  0  0  0  0
++         0  0  0  0  0  0  0  0  0  0  0  0  0  0  0  0  0
++         0  0  0  0  0  0  0  0  0  0  0  0  0  0  0  0  0
++         0  0  0  0  0  0  0  0  0  0  0  0  0  0  0  0  0
++         0  0  0  0  0  0  0  0  0  0  0  0  0  0  0  0  0
%c L  cc GPS ccc cccc cccc cccc cccc ccccc ccccc ccccc ccccc
%c cc cc ccc ccc cccc cccc cccc cccc ccccc ccccc ccccc ccccc
%f  0.0000000  0.000000000  0.00000000000  0.000000000000000
%f  0.0000000  0.000000000  0.00000000000  0.000000000000000
%i    0    0    0    0      0      0      0      0         0
%i    0    0    0    0      0      0      0      0         0
/* CCCCCCCCCCCCCCCCCCCCCCCCCCCCCCCCCCCCCCCCCCCCCCCCCCCCCCCCCCCCCCCCCCCCCCCCCCCCC
/* C                             GFZ RSO-ORBIT                                 C
/* C DOI: https://doi.org/10.5880/GFZ_ORBIT/RSO/L64_G_v02                      C
/* C                                                                           C
/* C DORIS        RMS: not applicable                                          C
/* C GNSS-E Code  RMS: not applicable                                          C
/* C GNSS-E Phase RMS: not applicable                                          C
/* C GNSS-G Code  RMS:  49.146 [cm]   Obs.acc.:     13474 Obs.eli.:       957  C
/* C GNSS-G Phase RMS:   4.066 [mm]   Obs.acc.:     13474 Obs.eli.:       957  C
/* C SLR          RMS:   1.300 [cm]   Obs.acc.:         7 Obs.eli.:         0  C
/* C                                                                           C
/* CCCCCCCCCCCCCCCCCCCCCCCCCCCCCCCCCCCCCCCCCCCCCCCCCCCCCCCCCCCCCCCCCCCCCCCCCCCCC
*  2023  2  2  9 28 30.00000000
PL64    372.141181  -6805.899548   -805.470780   7489.384544
VL64  -4094.996178   8654.951864 -75742.423332 999999.999999
*  2023  2  2  9 29  0.00000000
PL64    359.715009  -6776.148594  -1032.207236   7489.844410
VL64  -4186.511374  11177.183424 -75401.191455 999999.999999
*  2023  2  2  9 29 30.00000000
PL64    347.037774  -6738.848899  -1257.794016   7490.304456
VL64  -4262.365657  13686.964170 -74976.049342 999999.999999
*  2023  2  2  9 30  0.00000000
PL64    334.156501  -6694.042137  -1481.980130   7490.764011
VL64  -4322.535838  16181.417405 -74467.508051 999999.999999
*  2023  2  2  9 30 30.00000000
PL64    321.118238  -6641.778580  -1704.516269   7491.224075
VL64  -4367.028665  18657.686245 -73876.174896 999999.999999
*  2023  2  2  9 31  0.00000000
PL64    307.969970  -6582.117038  -1925.155087   7491.684177
VL64  -4395.880791  21112.937782 -73202.752612 999999.999999
*  2023  2  2  9 31 30.00000000
PL64    294.758528  -6515.124777  -2143.651489   7492.143968
VL64  -4409.158819  23544.366728 -72448.037808 999999.999999
*  2023  2  2  9 32  0.00000000
PL64    281.530496  -6440.877436  -2359.762907   7492.603750
VL64  -4406.959162  25949.198484 -71612.919646 999999.999999
*  2023  2  2  9 32 30.00000000
PL64    268.332126  -6359.458925  -2573.249581   7493.063380
VL64  -4389.407659  28324.692401 -70698.378774 999999.999999
*  2023  2  2  9 33  0.00000000
PL64    255.209248  -6270.961324  -2783.874825   7493.523426
VL64  -4356.659200  30668.145194 -69705.486112 999999.999999
*  2023  2  2  9 33 30.00000000
PL64    242.207185  -6175.484759  -2991.405303   7493.983448
VL64  -4308.897360  32976.894469 -68635.401507 999999.999999
*  2023  2  2  9 34  0.00000000
PL64    229.370666  -6073.137280  -3195.611287   7494.443329
VL64  -4246.334042  35248.322309 -67489.372062 999999.999999
*  2023  2  2  9 34 30.00000000
PL64    216.743743  -5964.034718  -3396.266920   7494.903180
VL64  -4169.209005  37479.858745 -66268.730168 999999.999999
*  2023  2  2  9 35  0.00000000
PL64    204.369708  -5848.300539  -3593.150468   7495.362702
VL64  -4077.789348  39668.985137 -64974.891250 999999.999999
*  2023  2  2  9 35 30.00000000
PL64    192.291009  -5726.065684  -3786.044564   7495.822919
VL64  -3972.369064  41813.237195 -63609.351067 999999.999999
*  2023  2  2  9 36  0.00000000
PL64    180.549174  -5597.468400  -3974.736444   7496.282934
VL64  -3853.268515  43910.207356 -62173.683067 999999.999999
*  2023  2  2  9 36 30.00000000
PL64    169.184733  -5462.654072  -4159.018181   7496.742673
VL64  -3720.833636  45957.546884 -60669.536055 999999.999999
*  2023  2  2  9 37  0.00000000
PL64    158.237137  -5321.775039  -4338.686901   7497.202274
VL64  -3575.434992  47952.967830 -59098.632212 999999.999999
*  2023  2  2  9 37 30.00000000
PL64    147.744693  -5174.990411  -4513.545009   7497.662227
VL64  -3417.466968  49894.245234 -57462.765406 999999.999999
*  2023  2  2  9 38  0.00000000
PL64    137.744488  -5022.465873  -4683.400392   7498.122281
VL64  -3247.347319  51779.219741 -55763.799228 999999.999999
*  2023  2  2  9 38 30.00000000
PL64    128.272321  -4864.373489  -4848.066633   7498.582164
VL64  -3065.516722  53605.800199 -54003.664633 999999.999999
*  2023  2  2  9 39  0.00000000
PL64    119.362637  -4700.891489  -5007.363205   7499.041885
VL64  -2872.437758  55371.966152 -52184.357332 999999.999999
*  2023  2  2  9 39 30.00000000
PL64    111.048460  -4532.204056  -5161.115660   7499.501988
VL64  -2668.593715  57075.769997 -50307.935032 999999.999999
*  2023  2  2  9 40  0.00000000
PL64    103.361337  -4358.501106  -5309.155815   7499.961744
VL64  -2454.487759  58715.338971 -48376.514692 999999.999999
*  2023  2  2  9 40 30.00000000
PL64     96.331274  -4179.978056  -5451.321922   7500.421603
VL64  -2230.642177  60288.877022 -46392.269517 999999.999999
*  2023  2  2  9 41  0.00000000
PL64     89.986684  -3996.835596  -5587.458832   7500.881580
VL64  -1997.597345  61794.666099 -44357.425981 999999.999999
*  2023  2  2  9 41 30.00000000
PL64     84.354332  -3809.279450  -5717.418155   7501.341257
VL64  -1755.910675  63231.067288 -42274.261472 999999.999999
*  2023  2  2  9 42  0.00000000
PL64     79.459288  -3617.520141  -5841.058405   7501.801459
VL64  -1506.155677  64596.522315 -40145.101925 999999.999999
*  2023  2  2  9 42 30.00000000
PL64     75.324878  -3421.772741  -5958.245142   7502.261244
VL64  -1248.920954  65889.555107 -37972.319283 999999.999999
*  2023  2  2  9 43  0.00000000
PL64     71.972640  -3222.256628  -6068.851111   7502.721376
VL64   -984.809307  67108.773436 -35758.328583 999999.999999
*  2023  2  2  9 43 30.00000000
PL64     69.422284  -3019.195225  -6172.756359   7503.181112
VL64   -714.436840  68252.869876 -33505.584625 999999.999999
*  2023  2  2  9 44  0.00000000
PL64     67.691652  -2812.815755  -6269.848356   7503.640827
VL64   -438.431983  69320.622325 -31216.579468 999999.999999
*  2023  2  2  9 44 30.00000000
PL64     66.796685  -2603.348974  -6360.022101   7504.100863
VL64   -157.434483  70310.895266 -28893.839910 999999.999999
*  2023  2  2  9 45  0.00000000
PL64     66.751388  -2391.028914  -6443.180219   7504.560980
VL64    127.905506  71222.640489 -26539.924198 999999.999999
*  2023  2  2  9 45 30.00000000
PL64     67.567801  -2176.092623  -6519.233056   7505.021126
VL64    416.928445  72054.896786 -24157.419592 999999.999999
*  2023  2  2  9 46  0.00000000
PL64     69.255974  -1958.779899  -6588.098762   7505.481176
VL64    708.967127  72806.790550 -21748.941107 999999.999999
*  2023  2  2  9 46 30.00000000
PL64     71.823946  -1739.333029  -6649.703369   7505.940687
VL64   1003.348190  73477.537845 -19317.129601 999999.999999
*  2023  2  2  9 47  0.00000000
PL64     75.277727  -1517.996514  -6703.980868   7506.400880
VL64   1299.392758  74066.446395 -16864.647993 999999.999999
*  2023  2  2  9 47 30.00000000
PL64     79.621283  -1295.016793  -6750.873267   7506.860910
VL64   1596.417594  74572.915711 -14394.176955 999999.999999
*  2023  2  2  9 48  0.00000000
PL64     84.856527  -1070.641971  -6790.330636   7507.320646
VL64   1893.736845  74996.436337 -11908.411880 999999.999999
*  2023  2  2  9 48 30.00000000
PL64     90.983311   -845.121545  -6822.311151   7507.780816
VL64   2190.663131  75336.589630  -9410.060057 999999.999999
*  2023  2  2  9 49  0.00000000
PL64     97.999424   -618.706132  -6846.781125   7508.240631
VL64   2486.507927  75593.046874  -6901.837895 999999.999999
*  2023  2  2  9 49 30.00000000
PL64    105.900588   -391.647203  -6863.715032   7508.700552
VL64   2780.582203  75765.568554  -4386.469887 999999.999999
*  2023  2  2  9 50  0.00000000
PL64    114.680459   -164.196808  -6873.095530   7509.160738
VL64   3072.197808  75854.006116  -1866.687438 999999.999999
*  2023  2  2  9 50 30.00000000
PL64    124.330631     63.392691  -6874.913476   7509.620505
VL64   3360.669193  75858.303840    654.775896 999999.999999
*  2023  2  2  9 51  0.00000000
PL64    134.840647    290.868907  -6869.167925   7510.080366
VL64   3645.314129  75778.496700   3175.189053 999999.999999
*  2023  2  2  9 51 30.00000000
PL64    146.198010    517.979687  -6855.866120   7510.540201
VL64   3925.453811  75614.708087   5691.823800 999999.999999
*  2023  2  2  9 52  0.00000000
PL64    158.388191    744.473383  -6835.023486   7511.000288
VL64   4200.414088  75367.150456   8201.955273 999999.999999
*  2023  2  2  9 52 30.00000000
PL64    171.394647    970.099120  -6806.663612   7511.460071
VL64   4469.527236  75036.125813  10702.864115 999999.999999
*  2023  2  2  9 53  0.00000000
PL64    185.198847   1194.607061  -6770.818236   7511.920382
VL64   4732.133375  74622.026799  13191.838106 999999.999999
*  2023  2  2  9 53 30.00000000
PL64    199.780290   1417.748689  -6727.527220   7512.380012
VL64   4987.581936  74125.339014  15666.176240 999999.999999
EOF
